[{"OBJECT_NAME":"STARLINK-30445","OBJECT_ID":"2023-144K","EPOCH":"2026-03-09T22:17:59.654688","MEAN_MOTION":15.2657808,"ECCENTRICITY":0.00037387,"INCLINATION":42.9975,"RA_OF_ASC_NODE":283.8843,"ARG_OF_PERICENTER":74.9249,"MEAN_ANOMALY":285.2015,"EPHEMERIS_TYPE":0,"CLASSIFICATION_TYPE":"U","NORAD_CAT_ID":57873,"ELEMENT_SET_NO":999,"REV_AT_EPOCH":13763,"BSTAR":-0.0010003816,"MEAN_MOTION_DOT":-0.00026871,"MEAN_MOTION_DDOT":0},{"OBJECT_NAME":"FENGYUN 1C DEB","OBJECT_ID":"1999-025CMP","EPOCH":"2026-03-08T08:37:00.789888","MEAN_MOTION":14.96815474,"ECCENTRICITY":0.01497126,"INCLINATION":98.9176,"RA_OF_ASC_NODE":115.7276,"ARG_OF_PERICENTER":148.4975,"MEAN_ANOMALY":212.5316,"EPHEMERIS_TYPE":0,"CLASSIFICATION_TYPE":"U","NORAD_CAT_ID":31938,"ELEMENT_SET_NO":999,"REV_AT_EPOCH":409,"BSTAR":0.00073670691,"MEAN_MOTION_DOT":0.00010536,"MEAN_MOTION_DDOT":0}]
